[{"OBJECT_NAME":"STARLINK-33995","OBJECT_ID":"2025-087K","EPOCH":"2026-03-09T22:33:24.380928","MEAN_MOTION":15.30268215,"ECCENTRICITY":0.00010276,"INCLINATION":53.1593,"RA_OF_ASC_NODE":218.6921,"ARG_OF_PERICENTER":127.0281,"MEAN_ANOMALY":233.0814,"EPHEMERIS_TYPE":0,"CLASSIFICATION_TYPE":"U","NORAD_CAT_ID":63706,"ELEMENT_SET_NO":999,"REV_AT_EPOCH":4923,"BSTAR":0.0028465806,"MEAN_MOTION_DOT":0.00085098,"MEAN_MOTION_DDOT":0},{"OBJECT_NAME":"COSMOS 1782","OBJECT_ID":"1986-074A","EPOCH":"2026-03-09T22:40:22.374624","MEAN_MOTION":15.33314157,"ECCENTRICITY":0.00054418,"INCLINATION":82.5242,"RA_OF_ASC_NODE":238.1482,"ARG_OF_PERICENTER":197.7479,"MEAN_ANOMALY":162.3574,"EPHEMERIS_TYPE":0,"CLASSIFICATION_TYPE":"U","NORAD_CAT_ID":16986,"ELEMENT_SET_NO":999,"REV_AT_EPOCH":13134,"BSTAR":0.00042191031,"MEAN_MOTION_DOT":0.00013623,"MEAN_MOTION_DDOT":0}]
